{
    "CCSDS_OMM_VERS": "3.0",
    "COMMENT": "GENERATED VIA SPACE-TRACK.ORG API",
    "CREATION_DATE": "2025-11-23T23:06:32",
    "ORIGINATOR": "18 SPCS",
    "OBJECT_NAME": "BEIDOU 10",
    "OBJECT_ID": "2011-073A",
    "CENTER_NAME": "EARTH",
    "REF_FRAME": "TEME",
    "TIME_SYSTEM": "UTC",
    "MEAN_ELEMENT_THEORY": "SGP4",
    "EPOCH": "2025-11-23T19:21:47.481984",
    "MEAN_MOTION": "1.00251489",
    "ECCENTRICITY": "0.01080400",
    "INCLINATION": "48.0570",
    "RA_OF_ASC_NODE": "274.0915",
    "ARG_OF_PERICENTER": "222.1871",
    "MEAN_ANOMALY": "309.0350",
    "EPHEMERIS_TYPE": "0",
    "CLASSIFICATION_TYPE": "U",
    "NORAD_CAT_ID": "37948",
    "ELEMENT_SET_NO": "999",
    "REV_AT_EPOCH": "5107",
    "BSTAR": "0.00000000000000",
    "MEAN_MOTION_DOT": "-0.00000152",
    "MEAN_MOTION_DDOT": "0.0000000000000",
    "SEMIMAJOR_AXIS": "42170.423",
    "PERIOD": "1436.388",
    "APOAPSIS": "36247.897",
    "PERIAPSIS": "35336.678",
    "OBJECT_TYPE": "PAYLOAD",
    "RCS_SIZE": "LARGE",
    "COUNTRY_CODE": "PRC",
    "LAUNCH_DATE": "2011-12-01",
    "SITE": "XSC",
    "DECAY_DATE": null,
    "FILE": "4896340",
    "GP_ID": "303351594",
    "TLE_LINE0": "0 BEIDOU 10",
    "TLE_LINE1": "1 37948U 11073A   25327.80679956 -.00000152  00000-0  00000+0 0  9990",
    "TLE_LINE2": "2 37948  48.0570 274.0915 0108040 222.1871 309.0350  1.00251489 51074"
}